{
  "norad_id": 63932,
  "name": "STARLINK-33971",
  "history": [
    {
      "epoch": "2026-03-28T19:34:27.429600",
      "apogee_km": 574.0528649177841,
      "perigee_km": 569.9791022479876,
      "latitude_deg": -19.63692636796512,
      "longitude_deg": -68.50285600009374,
      "semi_major_axis_km": 6950.152983582886,
      "eccentricity": 0.00029307,
      "inclination_deg": 70.0012,
      "raan_deg": 226.3809,
      "arg_perigee_deg": 270.2545,
      "mean_anomaly_deg": 89.8278,
      "mean_motion_rev_day": 14.98342905
    }
  ]
}