{"fetched_at":"2026-03-29T16:36:15Z","count":15609,"tles":[{"name":"STARLINK-33971","line1":"1 63932U 25098G   26087.81559525  .00002156  00000+0  18835-3 0  9991","line2":"2 63932  70.0012 226.3809 0002930 270.2545  89.8278 14.98342905 49431","category":"Starlink"}]}